NORAD_CAT_ID,OBJECT_NAME,OBJECT_TYPE,EPOCH,MEAN_MOTION,ECCENTRICITY,INCLINATION,RA_OF_ASC_NODE,ARG_OF_PERICENTER,MEAN_ANOMALY,BSTAR,MEAN_MOTION_DOT,MEAN_MOTION_DDOT,TLE_LINE0,TLE_LINE1,TLE_LINE2,SEMIMAJOR_AXIS,PERIOD,APOGEE,PERIGEE,DECAYED
50820.0,STARLINK-3339,PAYLOAD,2023-05-21 06:36:17,15.08859353,0.0001216,53.2167,83.402,96.2649,263.8482,0.00025929,3.843e-05,0.0,0 STARLINK-3339,1 50820U 22001T   23141.27520335  .00003843  00000-0  25929-3 0  9996,2 50820  53.2167  83.4020 0001216  96.2649 263.8482 15.08859353 77187,6917.821,95.436,540.527,538.845,0.0
50820.0,STARLINK-3339,PAYLOAD,2023-05-21 19:19:23,15.08831614,0.0001429,53.2164,81.0174,69.1802,290.9344,-0.00025474,-4.339e-05,0.0,0 STARLINK-3339,1 50820U 22001T   23141.80513511 -.00004339  00000-0 -25474-3 0  9991,2 50820  53.2164  81.0174 0001429  69.1802 290.9344 15.08831614 75988,6917.906,95.438,540.76,538.782,0.0
50820.0,STARLINK-3339,PAYLOAD,2023-05-22 00:05:33,15.08823275,0.0001584,53.2166,80.1296,107.7514,252.3651,-0.0003679,-6.136e-05,0.0,0 STARLINK-3339,1 50820U 22001T   23142.00386018 -.00006136  00000-0 -36790-3 0  9994,2 50820  53.2166  80.1296 0001584 107.7514 252.3651 15.08823275 77299,6917.932,95.439,540.892,538.701,0.0
50820.0,STARLINK-3339,PAYLOAD,2023-05-22 03:16:20,15.08821656,0.0001497,53.2179,79.5307,59.4166,300.6973,-0.00028056,-4.748e-05,0.0,0 STARLINK-3339,1 50820U 22001T   23142.13634521 -.00004748  00000-0 -28056-3 0  9996,2 50820  53.2179  79.5307 0001497  59.4166 300.6973 15.08821656 76033,6917.936,95.439,540.837,538.766,0.0
50820.0,STARLINK-3339,PAYLOAD,2023-05-22 19:10:11,15.08840921,0.0001187,53.2185,76.5611,83.8831,276.2297,-5.6176e-05,-1.182e-05,0.0,0 STARLINK-3339,1 50820U 22001T   23142.79874706 -.00001182  00000-0 -56176-4 0  9993,2 50820  53.2185  76.5611 0001187  83.8831 276.2297 15.08840921 77417,6917.878,95.437,540.564,538.921,0.0
50820.0,STARLINK-3339,PAYLOAD,2023-05-23 01:31:43,15.08847912,0.0001267,53.2186,75.375,90.4613,269.6524,4.5833e-05,4.42e-06,0.0,0 STARLINK-3339,1 50820U 22001T   23143.06369976  .00000442  00000-0  45833-4 0  9996,2 50820  53.2186  75.3750 0001267  90.4613 269.6524 15.08847912 77450,6917.856,95.437,540.598,538.845,0.0
50820.0,STARLINK-3339,PAYLOAD,2023-05-23 04:42:29,15.08848875,0.0001265,53.2181,74.7799,89.9595,270.1542,0.00017773,2.542e-05,0.0,0 STARLINK-3339,1 50820U 22001T   23143.19617898  .00002542  00000-0  17773-3 0  9993,2 50820  53.2181  74.7799 0001265  89.9595 270.1542 15.08848875 76197,6917.853,95.437,540.593,538.843,0.0
50820.0,STARLINK-3339,PAYLOAD,2023-05-24 04:33:17,15.08841976,0.0001457,53.2183,70.3179,85.128,274.9878,0.00034595,5.222e-05,0.0,0 STARLINK-3339,1 50820U 22001T   23144.18978818  .00005222  00000-0  34595-3 0  9994,2 50820  53.2183  70.3179 0001457  85.1280 274.9878 15.08841976 77623,6917.874,95.437,540.747,538.731,0.0
50820.0,STARLINK-3339,PAYLOAD,2023-05-25 18:42:32,15.08838988,0.0001216,53.2184,63.1825,90.0768,270.0364,2.6506e-05,1.34e-06,0.0,0 STARLINK-3339,1 50820U 22001T   23145.77954710  .00000134  00000-0  26506-4 0  9996,2 50820  53.2184  63.1825 0001216  90.0768 270.0364 15.08838988 77863,6917.883,95.438,540.59,538.907,0.0
50820.0,STARLINK-3339,PAYLOAD,2023-05-25 21:53:19,15.08840504,0.0001358,53.2181,62.5879,96.8108,263.3038,3.9589e-05,3.42e-06,0.0,0 STARLINK-3339,1 50820U 22001T   23145.91202611  .00000342  00000-0  39589-4 0  9994,2 50820  53.2181  62.5879 0001358  96.8108 263.3038 15.08840504 76602,6917.879,95.438,540.683,538.804,0.0
50820.0,STARLINK-3339,PAYLOAD,2023-05-26 01:04:05,15.0884193,0.0001432,53.2185,61.992,104.6368,255.4783,6.4358e-05,7.37e-06,0.0,0 STARLINK-3339,1 50820U 22001T   23146.04450511  .00000737  00000-0  64358-4 0  9993,2 50820  53.2185  61.9920 0001432 104.6368 255.4783 15.08841930 76620,6917.874,95.437,540.73,538.749,0.0
50820.0,STARLINK-3339,PAYLOAD,2023-05-26 21:44:06,15.08839105,0.0001237,53.2177,58.1271,97.4635,262.6498,7.7156e-06,-1.65e-06,0.0,0 STARLINK-3339,1 50820U 22001T   23146.90562717 -.00000165  00000-0  77156-5 0  9997,2 50820  53.2177  58.1271 0001237  97.4635 262.6498 15.08839105 76755,6917.883,95.438,540.604,538.892,0.0
50820.0,STARLINK-3339,PAYLOAD,2023-05-27 00:54:52,15.08841834,0.0001216,53.2181,57.5341,102.9257,257.1871,5.5209e-05,5.91e-06,0.0,0 STARLINK-3339,1 50820U 22001T   23147.03810552  .00000591  00000-0  55209-4 0  9991,2 50820  53.2181  57.5341 0001216 102.9257 257.1871 15.08841834 78051,6917.875,95.437,540.581,538.899,0.0
50820.0,STARLINK-3339,PAYLOAD,2023-05-27 16:48:44,15.0883575,0.000129,53.2184,54.5611,108.9893,251.1239,8.1457e-05,1.009e-05,0.0,0 STARLINK-3339,1 50820U 22001T   23147.70050973  .00001009  00000-0  81457-4 0  9997,2 50820  53.2184  54.5611 0001290 108.9893 251.1239 15.08835750 78158,6917.893,95.438,540.651,538.866,0.0
50820.0,STARLINK-3339,PAYLOAD,2023-05-27 21:34:53,15.08833958,0.0001291,53.2186,53.6686,107.9703,252.143,3.8836e-05,3.3e-06,0.0,0 STARLINK-3339,1 50820U 22001T   23147.89923131  .00000330  00000-0  38836-4 0  9991,2 50820  53.2186  53.6686 0001291 107.9703 252.1430 15.08833958 76905,6917.899,95.438,540.657,538.871,0.0
50820.0,STARLINK-3339,PAYLOAD,2023-05-28 03:56:25,15.08839305,0.0001295,53.2194,52.4791,107.9713,252.1421,0.00011517,1.545e-05,0.0,0 STARLINK-3339,1 50820U 22001T   23148.16418954  .00001545  00000-0  11517-3 0  9999,2 50820  53.2194  52.4791 0001295 107.9713 252.1421 15.08839305 76949,6917.883,95.438,540.643,538.852,0.0
50820.0,STARLINK-3339,PAYLOAD,2023-05-28 21:25:40,15.08842268,0.0001252,53.2193,49.2081,108.327,251.7859,0.00010772,1.427e-05,0.0,0 STARLINK-3339,1 50820U 22001T   23148.89282895  .00001427  00000-0  10772-3 0  9993,2 50820  53.2193  49.2081 0001252 108.3270 251.7859 15.08842268 77055,6917.873,95.437,540.605,538.872,0.0
50820.0,STARLINK-3339,PAYLOAD,2023-05-29 03:47:13,15.08800306,0.00016,53.2189,48.0187,110.6102,249.5062,0.00094414,0.00014754,0.0,0 STARLINK-3339,1 50820U 22001T   23149.15780019  .00014754  00000-0  94414-3 0  9996,2 50820  53.2189  48.0187 0001600 110.6102 249.5062 15.08800306 78375,6918.002,95.44,540.974,538.76,0.0
50820.0,STARLINK-3339,PAYLOAD,2023-05-29 21:16:28,15.0883428,0.000166,53.2195,44.7476,123.2719,236.8432,8.0931e-05,1e-05,0.0,0 STARLINK-3339,1 50820U 22001T   23149.88643620  .00001000  00000-0  80931-4 0  9992,2 50820  53.2195  44.7476 0001660 123.2719 236.8432 15.08834280 77205,6917.898,95.438,540.911,538.615,0.0
50820.0,STARLINK-3339,PAYLOAD,2023-05-30 00:27:14,15.08833198,0.0001326,53.2178,44.1503,69.7428,290.3707,-5.6945e-05,-1.194e-05,0.0,0 STARLINK-3339,1 50820U 22001T   23150.01891570 -.00001194  00000-0 -56945-4 0  9992,2 50820  53.2178  44.1503 0001326  69.7428 290.3707 15.08833198 78502,6917.901,95.438,540.683,538.849,0.0
50820.0,STARLINK-3339,PAYLOAD,2023-05-30 22:42:37,15.08849579,0.0001012,53.2173,39.9879,89.7957,270.3151,0.00010087,1.318e-05,0.0,0 STARLINK-3339,1 50820U 22001T   23150.94626690  .00001318  00000-0  10087-3 0  9995,2 50820  53.2173  39.9879 0001012  89.7957 270.3151 15.08849579 77360,6917.851,95.437,540.416,539.016,0.0
50820.0,STARLINK-3339,PAYLOAD,2023-05-31 01:53:23,15.08856052,0.0001078,53.218,39.3933,90.0194,270.0921,0.00020634,2.999e-05,0.0,0 STARLINK-3339,1 50820U 22001T   23151.07874384  .00002999  00000-0  20634-3 0  9990,2 50820  53.2180  39.3933 0001078  90.0194 270.0921 15.08856052 78663,6917.831,95.437,540.442,538.951,0.0
50820.0,STARLINK-3339,PAYLOAD,2023-05-31 22:33:24,15.08842,0.0001143,53.2189,35.5256,92.6142,267.4981,0.00022183,3.245e-05,0.0,0 STARLINK-3339,1 50820U 22001T   23151.93987004  .00003245  00000-0  22183-3 0  9995,2 50820  53.2189  35.5256 0001143  92.6142 267.4981 15.08842000 77519,6917.874,95.437,540.53,538.949,0.0
50820.0,STARLINK-3339,PAYLOAD,2023-06-01 22:24:11,15.08847343,0.0001105,53.2177,31.0698,88.3341,271.7778,0.00013859,1.919e-05,0.0,0 STARLINK-3339,1 50820U 22001T   23152.93346752  .00001919  00000-0  13859-3 0  9991,2 50820  53.2177  31.0698 0001105  88.3341 271.7778 15.08847343 77661,6917.858,95.437,540.487,538.959,0.0
50820.0,STARLINK-3339,PAYLOAD,2023-06-02 01:34:57,15.08848514,0.0001204,53.218,30.4737,92.174,267.939,0.00014487,2.019e-05,0.0,0 STARLINK-3339,1 50820U 22001T   23153.06594769  .00002019  00000-0  14487-3 0  9999,2 50820  53.2180  30.4737 0001204  92.1740 267.9390 15.08848514 78960,6917.854,95.437,540.552,538.886,0.0
50820.0,STARLINK-3339,PAYLOAD,2023-06-02 15:53:27,15.08825778,0.0001349,53.2173,27.7997,84.0204,276.0942,-8.7147e-05,-1.674e-05,0.0,0 STARLINK-3339,1 50820U 22001T   23153.66212202 -.00001674  00000-0 -87147-4 0  9996,2 50820  53.2173  27.7997 0001349  84.0204 276.0942 15.08825778 79056,6917.924,95.438,540.722,538.856,0.0
50820.0,STARLINK-3339,PAYLOAD,2023-06-02 22:15:00,15.08825615,0.0001324,53.2183,26.607,98.0926,262.0216,-4.581e-05,-1.017e-05,0.0,0 STARLINK-3339,1 50820U 22001T   23153.92708581 -.00001017  00000-0 -45810-4 0  9997,2 50820  53.2183  26.6070 0001324  98.0926 262.0216 15.08825615 77817,6917.924,95.438,540.705,538.873,0.0
50820.0,STARLINK-3339,PAYLOAD,2023-06-03 01:25:46,15.08826773,0.0001247,53.2183,26.0134,90.4953,269.6182,-1.9807e-05,-6.03e-06,0.0,0 STARLINK-3339,1 50820U 22001T   23154.05956675 -.00000603  00000-0 -19807-4 0  9998,2 50820  53.2183  26.0134 0001247  90.4953 269.6182 15.08826773 77835,6917.921,95.438,540.648,538.923,0.0
50820.0,STARLINK-3339,PAYLOAD,2023-06-03 22:05:46,15.08845902,0.0001227,53.2181,22.1483,89.2655,270.8478,0.00026989,4.011e-05,0.0,0 STARLINK-3339,1 50820U 22001T   23154.92068285  .00004011  00000-0  26989-3 0  9998,2 50820  53.2181  22.1483 0001227  89.2655 270.8478 15.08845902 77961,6917.862,95.437,540.576,538.879,0.0
50820.0,STARLINK-3339,PAYLOAD,2023-06-04 01:16:33,15.08849412,0.0001236,53.2183,21.5534,87.4749,272.6385,0.00049374,7.581e-05,0.0,0 STARLINK-3339,1 50820U 22001T   23155.05316455  .00007581  00000-0  49374-3 0  9996,2 50820  53.2183  21.5534 0001236  87.4749 272.6385 15.08849412 79269,6917.852,95.437,540.572,538.862,0.0
